{
  "type": "FeatureCollection",
  "features": [
    {
      "type": "Feature",
      "geometry": {
        "type": "Polygon",
        "coordinates": [
          [
            [
              1540.709716796875,
              632.9617919921875
            ],
            [
              1553.38232421875,
              546.6673583984375
            ],
            [
              1633.0386962890625,
              523.7359619140625
            ],
            [
              1698.2120361328125,
              572.6160278320312
            ],
            [
              1683.7291259765625,
              661.3242797851562
            ],
            [
              1605.883056640625,
              684.255615234375
            ],
            [
              1540.709716796875,
              632.3583374023438
            ],
            [
              1540.709716796875,
              632.9617919921875
            ]
          ]
        ]
      },
      "properties": {
        "name": "goalNE",
        "roi_type": "PolygonOfInterest"
      }
    },
    {
      "type": "Feature",
      "geometry": {
        "type": "Polygon",
        "coordinates": [
          [
            [
              881.009033203125,
              795.0467529296875
            ],
            [
              940.7293701171875,
              852.319580078125
            ],
            [
              919.1908569335938,
              933.578369140625
            ],
            [
              841.358642578125,
              955.6063842773438
            ],
            [
              783.1068115234375,
              902.2496948242188
            ],
            [
              799.7501831054688,
              818.5432739257812
            ],
            [
              799.7501831054688,
              818.5432739257812
            ],
            [
              881.009033203125,
              795.0467529296875
            ]
          ]
        ]
      },
      "properties": {
        "name": "goalW",
        "roi_type": "PolygonOfInterest"
      }
    }
  ]
}